[{"OBJECT_NAME":"ONEWEB-0403","OBJECT_ID":"2021-132Q","EPOCH":"2025-10-09T06:28:40.051200","MEAN_MOTION":13.1868816,"ECCENTRICITY":0.00018504,"INCLINATION":87.923,"RA_OF_ASC_NODE":25.2776,"ARG_OF_PERICENTER":97.3936,"MEAN_ANOMALY":262.7406,"EPHEMERIS_TYPE":0,"CLASSIFICATION_TYPE":"U","NORAD_CAT_ID":50483,"ELEMENT_SET_NO":999,"REV_AT_EPOCH":18852,"BSTAR":0.00013537865,"MEAN_MOTION_DOT":6.6e-7,"MEAN_MOTION_DDOT":0},{"OBJECT_NAME":"ONEWEB-0404","OBJECT_ID":"2021-132R","EPOCH":"2025-10-08T20:34:35.318208","MEAN_MOTION":13.1141675,"ECCENTRICITY":0.0001814,"INCLINATION":87.881,"RA_OF_ASC_NODE":71.1303,"ARG_OF_PERICENTER":80.5237,"MEAN_ANOMALY":279.6096,"EPHEMERIS_TYPE":0,"CLASSIFICATION_TYPE":"U","NORAD_CAT_ID":50484,"ELEMENT_SET_NO":999,"REV_AT_EPOCH":18275,"BSTAR":0.00083405,"MEAN_MOTION_DOT":3.08e-6,"MEAN_MOTION_DDOT":0},{"OBJECT_NAME":"ONEWEB-0405","OBJECT_ID":"2021-132S","EPOCH":"2025-10-09T06:50:03.606144","MEAN_MOTION":13.18688162,"ECCENTRICITY":0.00014468,"INCLINATION":87.9225,"RA_OF_ASC_NODE":25.2594,"ARG_OF_PERICENTER":99.2408,"MEAN_ANOMALY":260.8888,"EPHEMERIS_TYPE":0,"CLASSIFICATION_TYPE":"U","NORAD_CAT_ID":50485,"ELEMENT_SET_NO":999,"REV_AT_EPOCH":18892,"BSTAR":-0.00011656518,"MEAN_MOTION_DOT":-3.3e-7,"MEAN_MOTION_DDOT":0},{"OBJECT_NAME":"ONEWEB-0406","OBJECT_ID":"2021-132T","EPOCH":"2025-10-09T06:35:48.196896","MEAN_MOTION":13.18684158,"ECCENTRICITY":0.00022361,"INCLINATION":87.9231,"RA_OF_ASC_NODE":25.2853,"ARG_OF_PERICENTER":91.7401,"MEAN_ANOMALY":268.3988,"EPHEMERIS_TYPE":0,"CLASSIFICATION_TYPE":"U","NORAD_CAT_ID":50486,"ELEMENT_SET_NO":999,"REV_AT_EPOCH":18855,"BSTAR":0.00015112558,"MEAN_MOTION_DOT":7.2e-7,"MEAN_MOTION_DDOT":0},{"OBJECT_NAME":"ONEWEB-0407","OBJECT_ID":"2021-132U","EPOCH":"2025-10-09T06:26:17.408256","MEAN_MOTION":13.18688464,"ECCENTRICITY":0.00017061,"INCLINATION":87.9228,"RA_OF_ASC_NODE":25.2712,"ARG_OF_PERICENTER":105.7138,"MEAN_ANOMALY":254.4182,"EPHEMERIS_TYPE":0,"CLASSIFICATION_TYPE":"U","NORAD_CAT_ID":50487,"ELEMENT_SET_NO":999,"REV_AT_EPOCH":18849,"BSTAR":4.8321962e-5,"MEAN_MOTION_DOT":3.2e-7,"MEAN_MOTION_DDOT":0},{"OBJECT_NAME":"ONEWEB-0409","OBJECT_ID":"2021-132V","EPOCH":"2025-10-09T03:51:37.020960","MEAN_MOTION":13.11416883,"ECCENTRICITY":0.00019364,"INCLINATION":87.8819,"RA_OF_ASC_NODE":71.0299,"ARG_OF_PERICENTER":88.0173,"MEAN_ANOMALY":272.1177,"EPHEMERIS_TYPE":0,"CLASSIFICATION_TYPE":"U","NORAD_CAT_ID":50488,"ELEMENT_SET_NO":999,"REV_AT_EPOCH":18268,"BSTAR":0.00056998921,"MEAN_MOTION_DOT":2.15e-6,"MEAN_MOTION_DDOT":0},{"OBJECT_NAME":"ONEWEB-0412","OBJECT_ID":"2021-132W","EPOCH":"2025-10-09T06:09:41.101344","MEAN_MOTION":13.18686904,"ECCENTRICITY":0.00014324,"INCLINATION":87.9227,"RA_OF_ASC_NODE":25.2858,"ARG_OF_PERICENTER":102.5939,"MEAN_ANOMALY":257.5353,"EPHEMERIS_TYPE":0,"CLASSIFICATION_TYPE":"U","NORAD_CAT_ID":50489,"ELEMENT_SET_NO":999,"REV_AT_EPOCH":18858,"BSTAR":-1.847185e-6,"MEAN_MOTION_DOT":1.2e-7,"MEAN_MOTION_DDOT":0},{"OBJECT_NAME":"ONEWEB-0413","OBJECT_ID":"2021-132X","EPOCH":"2025-10-09T06:16:48.523008","MEAN_MOTION":13.18687493,"ECCENTRICITY":0.00014888,"INCLINATION":87.923,"RA_OF_ASC_NODE":25.3024,"ARG_OF_PERICENTER":107.7915,"MEAN_ANOMALY":252.3379,"EPHEMERIS_TYPE":0,"CLASSIFICATION_TYPE":"U","NORAD_CAT_ID":50490,"ELEMENT_SET_NO":999,"REV_AT_EPOCH":18852,"BSTAR":0.0003009626,"MEAN_MOTION_DOT":1.32e-6,"MEAN_MOTION_DDOT":0},{"OBJECT_NAME":"ONEWEB-0414","OBJECT_ID":"2021-132Y","EPOCH":"2025-10-09T05:55:26.054976","MEAN_MOTION":13.18686944,"ECCENTRICITY":0.00015489,"INCLINATION":87.9233,"RA_OF_ASC_NODE":25.2638,"ARG_OF_PERICENTER":96.8563,"MEAN_ANOMALY":263.2745,"EPHEMERIS_TYPE":0,"CLASSIFICATION_TYPE":"U","NORAD_CAT_ID":50491,"ELEMENT_SET_NO":999,"REV_AT_EPOCH":18855,"BSTAR":0.00044760586,"MEAN_MOTION_DOT":1.89e-6,"MEAN_MOTION_DDOT":0},{"OBJECT_NAME":"ONEWEB-0417","OBJECT_ID":"2021-132Z","EPOCH":"2025-10-09T06:07:18.829920","MEAN_MOTION":13.18685939,"ECCENTRICITY":0.00019151,"INCLINATION":87.9228,"RA_OF_ASC_NODE":25.2955,"ARG_OF_PERICENTER":94.1821,"MEAN_ANOMALY":265.953,"EPHEMERIS_TYPE":0,"CLASSIFICATION_TYPE":"U","NORAD_CAT_ID":50492,"ELEMENT_SET_NO":999,"REV_AT_EPOCH":18853,"BSTAR":0.00024901038,"MEAN_MOTION_DOT":1.11e-6,"MEAN_MOTION_DDOT":0},{"OBJECT_NAME":"ONEWEB-0418","OBJECT_ID":"2021-132AA","EPOCH":"2025-10-09T06:21:22.177728","MEAN_MOTION":13.18687095,"ECCENTRICITY":0.0002076,"INCLINATION":87.9228,"RA_OF_ASC_NODE":25.279,"ARG_OF_PERICENTER":87.5918,"MEAN_ANOMALY":272.5452,"EPHEMERIS_TYPE":0,"CLASSIFICATION_TYPE":"U","NORAD_CAT_ID":50493,"ELEMENT_SET_NO":999,"REV_AT_EPOCH":18859,"BSTAR":0.00013913347,"MEAN_MOTION_DOT":6.8e-7,"MEAN_MOTION_DDOT":0},{"OBJECT_NAME":"ONEWEB-0419","OBJECT_ID":"2021-132AB","EPOCH":"2025-10-09T06:47:41.264736","MEAN_MOTION":13.186885,"ECCENTRICITY":0.00021583,"INCLINATION":87.923,"RA_OF_ASC_NODE":25.2758,"ARG_OF_PERICENTER":98.6151,"MEAN_ANOMALY":261.5225,"EPHEMERIS_TYPE":0,"CLASSIFICATION_TYPE":"U","NORAD_CAT_ID":50494,"ELEMENT_SET_NO":999,"REV_AT_EPOCH":18851,"BSTAR":0.00025552689,"MEAN_MOTION_DOT":1.14e-6,"MEAN_MOTION_DDOT":0},{"OBJECT_NAME":"ONEWEB-0420","OBJECT_ID":"2021-132AC","EPOCH":"2025-10-09T05:57:48.750624","MEAN_MOTION":13.18686284,"ECCENTRICITY":0.00016679,"INCLINATION":87.9226,"RA_OF_ASC_NODE":25.2933,"ARG_OF_PERICENTER":112.4951,"MEAN_ANOMALY":247.6358,"EPHEMERIS_TYPE":0,"CLASSIFICATION_TYPE":"U","NORAD_CAT_ID":50495,"ELEMENT_SET_NO":999,"REV_AT_EPOCH":18850,"BSTAR":0.0002762232,"MEAN_MOTION_DOT":1.22e-6,"MEAN_MOTION_DDOT":0},{"OBJECT_NAME":"ONEWEB-0421","OBJECT_ID":"2021-132AD","EPOCH":"2025-10-09T05:48:17.977536","MEAN_MOTION":13.18687664,"ECCENTRICITY":0.00014607,"INCLINATION":87.9231,"RA_OF_ASC_NODE":25.2883,"ARG_OF_PERICENTER":96.803,"MEAN_ANOMALY":263.3269,"EPHEMERIS_TYPE":0,"CLASSIFICATION_TYPE":"U","NORAD_CAT_ID":50496,"ELEMENT_SET_NO":999,"REV_AT_EPOCH":18854,"BSTAR":0.00032101201,"MEAN_MOTION_DOT":1.39e-6,"MEAN_MOTION_DDOT":0},{"OBJECT_NAME":"ONEWEB-0424","OBJECT_ID":"2021-132AE","EPOCH":"2025-10-09T06:40:32.529792","MEAN_MOTION":13.18688565,"ECCENTRICITY":0.00022416,"INCLINATION":87.9233,"RA_OF_ASC_NODE":25.2763,"ARG_OF_PERICENTER":102.3872,"MEAN_ANOMALY":257.7512,"EPHEMERIS_TYPE":0,"CLASSIFICATION_TYPE":"U","NORAD_CAT_ID":50497,"ELEMENT_SET_NO":999,"REV_AT_EPOCH":18857,"BSTAR":0.00018941551,"MEAN_MOTION_DOT":8.8e-7,"MEAN_MOTION_DDOT":0},{"OBJECT_NAME":"ONEWEB-0426","OBJECT_ID":"2021-132AF","EPOCH":"2025-10-09T05:43:33.986784","MEAN_MOTION":13.18687169,"ECCENTRICITY":0.00015765,"INCLINATION":87.9228,"RA_OF_ASC_NODE":25.2756,"ARG_OF_PERICENTER":77.5882,"MEAN_ANOMALY":282.5426,"EPHEMERIS_TYPE":0,"CLASSIFICATION_TYPE":"U","NORAD_CAT_ID":50498,"ELEMENT_SET_NO":999,"REV_AT_EPOCH":18851,"BSTAR":0.00046140301,"MEAN_MOTION_DOT":1.95e-6,"MEAN_MOTION_DDOT":0},{"OBJECT_NAME":"ONEWEB-0427","OBJECT_ID":"2021-132AG","EPOCH":"2025-10-09T06:38:10.520160","MEAN_MOTION":13.18684551,"ECCENTRICITY":0.00019303,"INCLINATION":87.9229,"RA_OF_ASC_NODE":25.2572,"ARG_OF_PERICENTER":95.5094,"MEAN_ANOMALY":264.6259,"EPHEMERIS_TYPE":0,"CLASSIFICATION_TYPE":"U","NORAD_CAT_ID":50499,"ELEMENT_SET_NO":999,"REV_AT_EPOCH":18854,"BSTAR":0.0002011608,"MEAN_MOTION_DOT":9.2e-7,"MEAN_MOTION_DDOT":0},{"OBJECT_NAME":"ONEWEB-0429","OBJECT_ID":"2021-132AH","EPOCH":"2025-10-09T06:19:10.979328","MEAN_MOTION":13.18686813,"ECCENTRICITY":0.00017831,"INCLINATION":87.923,"RA_OF_ASC_NODE":25.2905,"ARG_OF_PERICENTER":104.7433,"MEAN_ANOMALY":255.3897,"EPHEMERIS_TYPE":0,"CLASSIFICATION_TYPE":"U","NORAD_CAT_ID":50500,"ELEMENT_SET_NO":999,"REV_AT_EPOCH":18851,"BSTAR":0.00013563736,"MEAN_MOTION_DOT":6.6e-7,"MEAN_MOTION_DDOT":0},{"OBJECT_NAME":"ONEWEB-0430","OBJECT_ID":"2021-132AJ","EPOCH":"2025-10-09T06:02:33.670176","MEAN_MOTION":13.18686751,"ECCENTRICITY":0.00019805,"INCLINATION":87.9231,"RA_OF_ASC_NODE":25.2874,"ARG_OF_PERICENTER":105.2946,"MEAN_ANOMALY":254.8405,"EPHEMERIS_TYPE":0,"CLASSIFICATION_TYPE":"U","NORAD_CAT_ID":50501,"ELEMENT_SET_NO":999,"REV_AT_EPOCH":18855,"BSTAR":0.00010657486,"MEAN_MOTION_DOT":5.5e-7,"MEAN_MOTION_DDOT":0},{"OBJECT_NAME":"ONEWEB-0432","OBJECT_ID":"2021-132AK","EPOCH":"2025-10-09T06:47:44.604096","MEAN_MOTION":13.18692844,"ECCENTRICITY":0.00026158,"INCLINATION":87.922,"RA_OF_ASC_NODE":25.257,"ARG_OF_PERICENTER":90.1463,"MEAN_ANOMALY":269.9969,"EPHEMERIS_TYPE":0,"CLASSIFICATION_TYPE":"U","NORAD_CAT_ID":50502,"ELEMENT_SET_NO":999,"REV_AT_EPOCH":18851,"BSTAR":6.6521102e-5,"MEAN_MOTION_DOT":3.9e-7,"MEAN_MOTION_DDOT":0},{"OBJECT_NAME":"ONEWEB-0440","OBJECT_ID":"2021-132AL","EPOCH":"2025-10-09T06:31:02.231904","MEAN_MOTION":13.18688353,"ECCENTRICITY":0.00013933,"INCLINATION":87.923,"RA_OF_ASC_NODE":25.2732,"ARG_OF_PERICENTER":105.0893,"MEAN_ANOMALY":255.0394,"EPHEMERIS_TYPE":0,"CLASSIFICATION_TYPE":"U","NORAD_CAT_ID":50503,"ELEMENT_SET_NO":999,"REV_AT_EPOCH":18850,"BSTAR":0.00028825656,"MEAN_MOTION_DOT":1.27e-6,"MEAN_MOTION_DDOT":0},{"OBJECT_NAME":"ONEWEB-0450","OBJECT_ID":"2021-132AM","EPOCH":"2025-10-09T06:21:44.455968","MEAN_MOTION":13.18684328,"ECCENTRICITY":0.00018423,"INCLINATION":87.9228,"RA_OF_ASC_NODE":25.2989,"ARG_OF_PERICENTER":109.927,"MEAN_ANOMALY":250.2061,"EPHEMERIS_TYPE":0,"CLASSIFICATION_TYPE":"U","NORAD_CAT_ID":50504,"ELEMENT_SET_NO":999,"REV_AT_EPOCH":18853,"BSTAR":0.000265835,"MEAN_MOTION_DOT":1.18e-6,"MEAN_MOTION_DDOT":0},{"OBJECT_NAME":"ONEWEB-0410","OBJECT_ID":"2022-012A","EPOCH":"2025-10-09T02:18:47.099808","MEAN_MOTION":13.1764952,"ECCENTRICITY":0.00023689,"INCLINATION":87.9097,"RA_OF_ASC_NODE":55.7728,"ARG_OF_PERICENTER":59.9368,"MEAN_ANOMALY":300.1999,"EPHEMERIS_TYPE":0,"CLASSIFICATION_TYPE":"U","NORAD_CAT_ID":51622,"ELEMENT_SET_NO":999,"REV_AT_EPOCH":18063,"BSTAR":-6.4552853e-5,"MEAN_MOTION_DOT":-1.2e-7,"MEAN_MOTION_DDOT":0}]
